[{"OBJECT_NAME":"ONEWEB-0420","OBJECT_ID":"2021-132AC","EPOCH":"2025-10-13T06:28:42.271680","MEAN_MOTION":13.18687136,"ECCENTRICITY":0.00017182,"INCLINATION":87.9231,"RA_OF_ASC_NODE":24.4957,"ARG_OF_PERICENTER":113.3346,"MEAN_ANOMALY":246.7967,"EPHEMERIS_TYPE":0,"CLASSIFICATION_TYPE":"U","NORAD_CAT_ID":50495,"ELEMENT_SET_NO":999,"REV_AT_EPOCH":18903,"BSTAR":3.1823712e-5,"MEAN_MOTION_DOT":2.5e-7,"MEAN_MOTION_DDOT":0},{"OBJECT_NAME":"ONEWEB-0421","OBJECT_ID":"2021-132AD","EPOCH":"2025-10-13T08:08:26.876544","MEAN_MOTION":13.18688089,"ECCENTRICITY":0.0001459,"INCLINATION":87.923,"RA_OF_ASC_NODE":24.4759,"ARG_OF_PERICENTER":99.0798,"MEAN_ANOMALY":261.05,"EPHEMERIS_TYPE":0,"CLASSIFICATION_TYPE":"U","NORAD_CAT_ID":50496,"ELEMENT_SET_NO":999,"REV_AT_EPOCH":18908,"BSTAR":1.8039382e-5,"MEAN_MOTION_DOT":2.0e-7,"MEAN_MOTION_DDOT":0},{"OBJECT_NAME":"ONEWEB-0424","OBJECT_ID":"2021-132AE","EPOCH":"2025-10-13T07:11:26.391264","MEAN_MOTION":13.18684009,"ECCENTRICITY":0.00022057,"INCLINATION":87.9235,"RA_OF_ASC_NODE":24.479,"ARG_OF_PERICENTER":100.8126,"MEAN_ANOMALY":259.3254,"EPHEMERIS_TYPE":0,"CLASSIFICATION_TYPE":"U","NORAD_CAT_ID":50497,"ELEMENT_SET_NO":999,"REV_AT_EPOCH":18910,"BSTAR":0.00017400276,"MEAN_MOTION_DOT":8.2e-7,"MEAN_MOTION_DDOT":0},{"OBJECT_NAME":"ONEWEB-0426","OBJECT_ID":"2021-132AF","EPOCH":"2025-10-13T06:14:27.475872","MEAN_MOTION":13.18687055,"ECCENTRICITY":0.00014127,"INCLINATION":87.9228,"RA_OF_ASC_NODE":24.478,"ARG_OF_PERICENTER":77.971,"MEAN_ANOMALY":282.1581,"EPHEMERIS_TYPE":0,"CLASSIFICATION_TYPE":"U","NORAD_CAT_ID":50498,"ELEMENT_SET_NO":999,"REV_AT_EPOCH":18904,"BSTAR":-4.309721e-5,"MEAN_MOTION_DOT":-4.0e-8,"MEAN_MOTION_DDOT":0},{"OBJECT_NAME":"ONEWEB-0427","OBJECT_ID":"2021-132AG","EPOCH":"2025-10-13T07:09:03.121920","MEAN_MOTION":13.1870357,"ECCENTRICITY":0.00021197,"INCLINATION":87.9229,"RA_OF_ASC_NODE":24.4595,"ARG_OF_PERICENTER":93.0025,"MEAN_ANOMALY":267.1349,"EPHEMERIS_TYPE":0,"CLASSIFICATION_TYPE":"U","NORAD_CAT_ID":50499,"ELEMENT_SET_NO":999,"REV_AT_EPOCH":18907,"BSTAR":-0.0072223878,"MEAN_MOTION_DOT":-2.834e-5,"MEAN_MOTION_DDOT":0},{"OBJECT_NAME":"ONEWEB-0429","OBJECT_ID":"2021-132AH","EPOCH":"2025-10-13T06:50:04.534080","MEAN_MOTION":13.18687273,"ECCENTRICITY":0.00017953,"INCLINATION":87.9231,"RA_OF_ASC_NODE":24.4928,"ARG_OF_PERICENTER":105.4992,"MEAN_ANOMALY":254.6339,"EPHEMERIS_TYPE":0,"CLASSIFICATION_TYPE":"U","NORAD_CAT_ID":50500,"ELEMENT_SET_NO":999,"REV_AT_EPOCH":18904,"BSTAR":6.3106454e-5,"MEAN_MOTION_DOT":3.8e-7,"MEAN_MOTION_DDOT":0},{"OBJECT_NAME":"ONEWEB-0430","OBJECT_ID":"2021-132AJ","EPOCH":"2025-10-13T06:33:27.119520","MEAN_MOTION":13.18687389,"ECCENTRICITY":0.00020362,"INCLINATION":87.9231,"RA_OF_ASC_NODE":24.4897,"ARG_OF_PERICENTER":105.1404,"MEAN_ANOMALY":254.9954,"EPHEMERIS_TYPE":0,"CLASSIFICATION_TYPE":"U","NORAD_CAT_ID":50501,"ELEMENT_SET_NO":999,"REV_AT_EPOCH":18908,"BSTAR":0.00020158899,"MEAN_MOTION_DOT":9.2e-7,"MEAN_MOTION_DDOT":0},{"OBJECT_NAME":"ONEWEB-0432","OBJECT_ID":"2021-132AK","EPOCH":"2025-10-13T05:29:20.655456","MEAN_MOTION":13.18694444,"ECCENTRICITY":0.00025705,"INCLINATION":87.9224,"RA_OF_ASC_NODE":24.4741,"ARG_OF_PERICENTER":86.9799,"MEAN_ANOMALY":273.1627,"EPHEMERIS_TYPE":0,"CLASSIFICATION_TYPE":"U","NORAD_CAT_ID":50502,"ELEMENT_SET_NO":999,"REV_AT_EPOCH":18903,"BSTAR":0.00017989235,"MEAN_MOTION_DOT":8.4e-7,"MEAN_MOTION_DDOT":0},{"OBJECT_NAME":"ONEWEB-0440","OBJECT_ID":"2021-132AL","EPOCH":"2025-10-13T07:01:56.267904","MEAN_MOTION":13.18684041,"ECCENTRICITY":0.00014235,"INCLINATION":87.9236,"RA_OF_ASC_NODE":24.476,"ARG_OF_PERICENTER":108.1004,"MEAN_ANOMALY":252.0284,"EPHEMERIS_TYPE":0,"CLASSIFICATION_TYPE":"U","NORAD_CAT_ID":50503,"ELEMENT_SET_NO":999,"REV_AT_EPOCH":18903,"BSTAR":9.4843732e-5,"MEAN_MOTION_DOT":5.0e-7,"MEAN_MOTION_DDOT":0},{"OBJECT_NAME":"ONEWEB-0450","OBJECT_ID":"2021-132AM","EPOCH":"2025-10-13T06:52:38.622432","MEAN_MOTION":13.18685416,"ECCENTRICITY":0.00019258,"INCLINATION":87.9229,"RA_OF_ASC_NODE":24.5015,"ARG_OF_PERICENTER":109.6528,"MEAN_ANOMALY":250.4812,"EPHEMERIS_TYPE":0,"CLASSIFICATION_TYPE":"U","NORAD_CAT_ID":50504,"ELEMENT_SET_NO":999,"REV_AT_EPOCH":18906,"BSTAR":0.00026887255,"MEAN_MOTION_DOT":1.19e-6,"MEAN_MOTION_DDOT":0},{"OBJECT_NAME":"ONEWEB-0410","OBJECT_ID":"2022-012A","EPOCH":"2025-10-13T06:32:55.583520","MEAN_MOTION":13.17649853,"ECCENTRICITY":0.00021464,"INCLINATION":87.9101,"RA_OF_ASC_NODE":54.9411,"ARG_OF_PERICENTER":56.1167,"MEAN_ANOMALY":304.0168,"EPHEMERIS_TYPE":0,"CLASSIFICATION_TYPE":"U","NORAD_CAT_ID":51622,"ELEMENT_SET_NO":999,"REV_AT_EPOCH":18118,"BSTAR":-0.00012494962,"MEAN_MOTION_DOT":-3.6e-7,"MEAN_MOTION_DDOT":0},{"OBJECT_NAME":"ONEWEB-0411","OBJECT_ID":"2022-012B","EPOCH":"2025-10-13T03:34:51.458016","MEAN_MOTION":13.10368217,"ECCENTRICITY":0.00020785,"INCLINATION":87.8749,"RA_OF_ASC_NODE":85.5184,"ARG_OF_PERICENTER":102.2375,"MEAN_ANOMALY":257.8985,"EPHEMERIS_TYPE":0,"CLASSIFICATION_TYPE":"U","NORAD_CAT_ID":51623,"ELEMENT_SET_NO":999,"REV_AT_EPOCH":17693,"BSTAR":-0.00017046169,"MEAN_MOTION_DOT":-4.7e-7,"MEAN_MOTION_DDOT":0},{"OBJECT_NAME":"ONEWEB-0415","OBJECT_ID":"2022-012C","EPOCH":"2025-10-13T03:30:04.822560","MEAN_MOTION":13.1036912,"ECCENTRICITY":0.00018783,"INCLINATION":87.8747,"RA_OF_ASC_NODE":85.5213,"ARG_OF_PERICENTER":97.9094,"MEAN_ANOMALY":262.2246,"EPHEMERIS_TYPE":0,"CLASSIFICATION_TYPE":"U","NORAD_CAT_ID":51624,"ELEMENT_SET_NO":999,"REV_AT_EPOCH":17693,"BSTAR":0.00043740908,"MEAN_MOTION_DOT":1.65e-6,"MEAN_MOTION_DDOT":0},{"OBJECT_NAME":"ONEWEB-0416","OBJECT_ID":"2022-012D","EPOCH":"2025-10-13T03:46:47.624160","MEAN_MOTION":13.10369813,"ECCENTRICITY":0.0001645,"INCLINATION":87.8754,"RA_OF_ASC_NODE":85.5395,"ARG_OF_PERICENTER":91.6109,"MEAN_ANOMALY":268.5206,"EPHEMERIS_TYPE":0,"CLASSIFICATION_TYPE":"U","NORAD_CAT_ID":51625,"ELEMENT_SET_NO":999,"REV_AT_EPOCH":17697,"BSTAR":-0.0013043292,"MEAN_MOTION_DOT":-4.43e-6,"MEAN_MOTION_DDOT":0},{"OBJECT_NAME":"ONEWEB-0422","OBJECT_ID":"2022-012E","EPOCH":"2025-10-13T06:47:29.674176","MEAN_MOTION":13.17650358,"ECCENTRICITY":0.00014257,"INCLINATION":87.9101,"RA_OF_ASC_NODE":54.9441,"ARG_OF_PERICENTER":124.1121,"MEAN_ANOMALY":236.0146,"EPHEMERIS_TYPE":0,"CLASSIFICATION_TYPE":"U","NORAD_CAT_ID":51626,"ELEMENT_SET_NO":999,"REV_AT_EPOCH":18129,"BSTAR":0.00012167579,"MEAN_MOTION_DOT":6.0e-7,"MEAN_MOTION_DDOT":0},{"OBJECT_NAME":"ONEWEB-0423","OBJECT_ID":"2022-012F","EPOCH":"2025-10-13T06:37:45.700896","MEAN_MOTION":13.17646508,"ECCENTRICITY":0.00015474,"INCLINATION":87.9105,"RA_OF_ASC_NODE":54.9549,"ARG_OF_PERICENTER":98.5144,"MEAN_ANOMALY":261.6163,"EPHEMERIS_TYPE":0,"CLASSIFICATION_TYPE":"U","NORAD_CAT_ID":51627,"ELEMENT_SET_NO":999,"REV_AT_EPOCH":18118,"BSTAR":0.00013495183,"MEAN_MOTION_DOT":6.5e-7,"MEAN_MOTION_DDOT":0},{"OBJECT_NAME":"ONEWEB-0425","OBJECT_ID":"2022-012G","EPOCH":"2025-10-13T04:01:07.723200","MEAN_MOTION":13.1037186,"ECCENTRICITY":0.00015382,"INCLINATION":87.875,"RA_OF_ASC_NODE":85.5069,"ARG_OF_PERICENTER":79.7418,"MEAN_ANOMALY":280.3883,"EPHEMERIS_TYPE":0,"CLASSIFICATION_TYPE":"U","NORAD_CAT_ID":51628,"ELEMENT_SET_NO":999,"REV_AT_EPOCH":17697,"BSTAR":-0.0016842778,"MEAN_MOTION_DOT":-5.75e-6,"MEAN_MOTION_DDOT":0}]
