ONEWEB-0420             
1 50495U 21132AC  25286.26993370  .00000025  00000+0  31824-4 0  9992
2 50495  87.9231  24.4957 0001718 113.3346 246.7967 13.18687136189030
ONEWEB-0421             
1 50496U 21132AD  25286.33919996  .00000020  00000+0  18039-4 0  9991
2 50496  87.9230  24.4759 0001459  99.0798 261.0500 13.18688089189089
ONEWEB-0424             
1 50497U 21132AE  25286.29961101  .00000082  00000+0  17400-3 0  9990
2 50497  87.9235  24.4790 0002205 100.8126 259.3254 13.18684009189103
ONEWEB-0426             
1 50498U 21132AF  25286.26004023 -.00000004  00000+0 -43097-4 0  9997
2 50498  87.9228  24.4780 0001412  77.9710 282.1581 13.18687055189041
ONEWEB-0427             
1 50499U 21132AG  25286.29795280 -.00002834  00000+0 -72224-2 0  9998
2 50499  87.9229  24.4595 0002119  93.0025 267.1349 13.18703570189079
ONEWEB-0429             
1 50500U 21132AH  25286.28477470  .00000038  00000+0  63106-4 0  9991
2 50500  87.9231  24.4928 0001795 105.4992 254.6339 13.18687273189043
ONEWEB-0430             
1 50501U 21132AJ  25286.27323055  .00000092  00000+0  20159-3 0  9990
2 50501  87.9231  24.4897 0002036 105.1404 254.9954 13.18687389189081
ONEWEB-0432             
1 50502U 21132AK  25286.22871129  .00000084  00000+0  17989-3 0  9994
2 50502  87.9224  24.4741 0002570  86.9799 273.1627 13.18694444189033
ONEWEB-0440             
1 50503U 21132AL  25286.29301236  .00000050  00000+0  94844-4 0  9998
2 50503  87.9236  24.4760 0001423 108.1004 252.0284 13.18684041189037
ONEWEB-0450             
1 50504U 21132AM  25286.28655813  .00000119  00000+0  26887-3 0  9998
2 50504  87.9229  24.5015 0001925 109.6528 250.4812 13.18685416189067
ONEWEB-0410             
1 51622U 22012A   25286.27286555 -.00000036  00000+0 -12495-3 0  9990
2 51622  87.9101  54.9411 0002146  56.1167 304.0168 13.17649853181185
ONEWEB-0411             
1 51623U 22012B   25286.14920669 -.00000047  00000+0 -17046-3 0  9997
2 51623  87.8749  85.5184 0002078 102.2375 257.8985 13.10368217176932
ONEWEB-0415             
1 51624U 22012C   25286.14588915  .00000165  00000+0  43741-3 0  9992
2 51624  87.8747  85.5213 0001878  97.9094 262.2246 13.10369120176933
ONEWEB-0416             
1 51625U 22012D   25286.15749565 -.00000443  00000+0 -13043-2 0  9996
2 51625  87.8754  85.5395 0001645  91.6109 268.5206 13.10369813176971
ONEWEB-0422             
1 51626U 22012E   25286.28298234  .00000060  00000+0  12168-3 0  9994
2 51626  87.9101  54.9441 0001425 124.1121 236.0146 13.17650358181291
ONEWEB-0423             
1 51627U 22012F   25286.27622339  .00000065  00000+0  13495-3 0  9990
2 51627  87.9105  54.9549 0001547  98.5144 261.6163 13.17646508181182
ONEWEB-0425             
1 51628U 22012G   25286.16745050 -.00000575  00000+0 -16843-2 0  9992
2 51628  87.8750  85.5069 0001538  79.7418 280.3883 13.10371860176977
